[{"OBJECT_NAME":"HODOYOSHI-4","OBJECT_ID":"2014-033B","EPOCH":"2026-03-09T23:32:21.950304","MEAN_MOTION":14.87847067,"ECCENTRICITY":0.0022404,"INCLINATION":97.5452,"RA_OF_ASC_NODE":258.5987,"ARG_OF_PERICENTER":275.1008,"MEAN_ANOMALY":84.7652,"EPHEMERIS_TYPE":0,"CLASSIFICATION_TYPE":"U","NORAD_CAT_ID":40011,"ELEMENT_SET_NO":999,"REV_AT_EPOCH":63405,"BSTAR":0.00030167959,"MEAN_MOTION_DOT":2.718e-5,"MEAN_MOTION_DDOT":0},{"OBJECT_NAME":"ARVAKER-3","OBJECT_ID":"2025-135AQ","EPOCH":"2026-03-09T22:14:44.749248","MEAN_MOTION":14.93138697,"ECCENTRICITY":4.474e-5,"INCLINATION":97.7597,"RA_OF_ASC_NODE":184.2656,"ARG_OF_PERICENTER":240.4177,"MEAN_ANOMALY":119.6998,"EPHEMERIS_TYPE":0,"CLASSIFICATION_TYPE":"U","NORAD_CAT_ID":64566,"ELEMENT_SET_NO":999,"REV_AT_EPOCH":3906,"BSTAR":0.00046258382,"MEAN_MOTION_DOT":4.77e-5,"MEAN_MOTION_DDOT":0}]
